$$SOE
2460154.500000000, A.D. 2023-Jul-29 00:00:00.0000, 2.739127791384745E+08, 1.651726892847175E+08, -9.514934977042079E+05,
2460161.500000000, A.D. 2023-Aug-05 00:00:00.0000, 2.676690760441924E+08, 1.763276806284579E+08, -1.798907732545488E+06,
2460168.500000000, A.D. 2023-Aug-12 00:00:00.0000, 2.610310005292326E+08, 1.872229084157324E+08, -2.643678347338185E+06,
2460175.500000000, A.D. 2023-Aug-19 00:00:00.0000, 2.540108759508560E+08, 1.978441330233209E+08, -3.484585378179953E+06,
2460182.500000000, A.D. 2023-Aug-26 00:00:00.0000, 2.466215541032089E+08, 2.081778043568323E+08, -4.320432328497261E+06,
2460189.500000000, A.D. 2023-Sep-02 00:00:00.0000, 2.388763690310503E+08, 2.182110796153661E+08, -5.150048666479573E+06,
2460196.500000000, A.D. 2023-Sep-09 00:00:00.0000, 2.307890907013530E+08, 2.279318374086737E+08, -5.972292132418811E+06,
2460203.500000000, A.D. 2023-Sep-16 00:00:00.0000, 2.223738790005437E+08, 2.373286882603993E+08, -6.786050871605098E+06,
2460210.500000000, A.D. 2023-Sep-23 00:00:00.0000, 2.136452387572257E+08, 2.463909819026344E+08, -7.590245405578345E+06,
2460217.500000000, A.D. 2023-Sep-30 00:00:00.0000, 2.046179757145265E+08, 2.551088126868785E+08, -8.383830314129710E+06,
2460224.500000000, A.D. 2023-Oct-07 00:00:00.0000, 1.953071513285635E+08, 2.634730227149177E+08, -9.165795458135545E+06,
2460231.500000000, A.D. 2023-Oct-14 00:00:00.0000, 1.857280376404006E+08, 2.714751995505507E+08, -9.935167111805186E+06,
2460238.500000000, A.D. 2023-Oct-21 00:00:00.0000, 1.758960756415791E+08, 2.791076702973016E+08, -1.069100917508037E+07,
2460245.500000000, A.D. 2023-Oct-28 00:00:00.0000, 1.658268358611704E+08, 2.863634944870327E+08, -1.143242415625857E+07,
2460252.500000000, A.D. 2023-Nov-04 00:00:00.0000, 1.555359800500374E+08, 2.932364552147855E+08, -1.215855387852275E+07,
2460259.500000000, A.D. 2023-Nov-11 00:00:00.0000, 1.450392242537417E+08, 2.997210481388491E+08, -1.286857998321076E+07,
2460266.500000000, A.D. 2023-Nov-18 00:00:00.0000, 1.343523035933910E+08, 3.058124684982374E+08, -1.356172426489130E+07,
2460273.500000000, A.D. 2023-Nov-25 00:00:00.0000, 1.234909389056733E+08, 3.115065963762324E+08, -1.423724885370302E+07,
2460280.500000000, A.D. 2023-Dec-02 00:00:00.0000, 1.124708053228513E+08, 3.167999803943948E+08, -1.489445625893010E+07,
2460287.500000000, A.D. 2023-Dec-09 00:00:00.0000, 1.013075028976341E+08, 3.216898199664608E+08, -1.553268929575458E+07,
2460294.500000000, A.D. 2023-Dec-16 00:00:00.0000, 9.001652956541079E+07, 3.261739463092045E+08, -1.615133093036185E+07,
2460301.500000000, A.D. 2023-Dec-23 00:00:00.0000, 7.861325678090787E+07, 3.302508030810829E+08, -1.674980402970564E+07,
2460308.500000000, A.D. 2023-Dec-30 00:00:00.0000, 6.711290646882924E+07, 3.339194278748269E+08, -1.732757081888045E+07,
2460315.500000000, A.D. 2024-Jan-06 00:00:00.0000, 5.553052748229773E+07, 3.371794323616845E+08, -1.788413208674659E+07,
2460322.500000000, A.D. 2024-Jan-13 00:00:00.0000, 4.388097469163558E+07, 3.400309794372661E+08, -1.841902658826964E+07,
2460329.500000000, A.D. 2024-Jan-20 00:00:00.0000, 3.217889187921274E+07, 3.424747606077713E+08, -1.893183051591009E+07,
2460336.500000000, A.D. 2024-Jan-27 00:00:00.0000, 2.043869635741553E+07, 3.445119743976441E+08, -1.942215681130378E+07,
2460343.500000000, A.D. 2024-Feb-03 00:00:00.0000, 8.674564814255347E+06, 3.461443049443766E+08, -1.988965436430719E+07,
2460350.500000000, A.D. 2024-Feb-10 00:00:00.0000, -3.099579409617852E+06, 3.473739005950959E+08, -2.033400715711056E+07,
2460357.500000000, A.D. 2024-Feb-17 00:00:00.0000, -1.487007755136302E+07, 3.482033526085792E+08, -2.075493337357600E+07,
2460364.500000000, A.D. 2024-Feb-24 00:00:00.0000, -2.662354520847091E+07, 3.486356740628566E+08, -2.115218448345555E+07,
2460371.500000000, A.D. 2024-Mar-02 00:00:00.0000, -3.834688072650483E+07, 3.486742790112247E+08, -2.152554431384285E+07,
2460378.500000000, A.D. 2024-Mar-09 00:00:00.0000, -5.002727213681331E+07, 3.483229618895187E+08, -2.187482813215943E+07,
2460385.500000000, A.D. 2024-Mar-16 00:00:00.0000, -6.165220233313802E+07, 3.475858774288029E+08, -2.219988176670259E+07,
2460392.500000000, A.D. 2024-Mar-23 00:00:00.0000, -7.320945267500855E+07, 3.464675222331152E+08, -2.250058067041466E+07,
2460399.500000000, A.D. 2024-Mar-30 00:00:00.0000, -8.468710733899252E+07, 3.449727180396959E+08, -2.277682873036781E+07,
2460406.500000000, A.D. 2024-Apr-06 00:00:00.0000, -9.607355823710357E+07, 3.431065933215413E+08, -2.302855712523755E+07,
2460413.500000000, A.D. 2024-Apr-13 00:00:00.0000, -1.073575070337887E+08, 3.408745640892686E+08, -2.325572349063779E+07,
2460420.500000000, A.D. 2024-Apr-20 00:00:00.0000, -1.185279652927957E+08, 3.382823165961113E+08, -2.345831109109278E+07,
2460427.500000000, A.D. 2024-Apr-27 00:00:00.0000, -1.295742543405720E+08, 3.353357914015085E+08, -2.363632790915780E+07,
2460434.500000000, A.D. 2024-May-04 00:00:00.0000, -1.404860048267720E+08, 3.320411680969346E+08, -2.378980571949400E+07,
2460441.500000000, A.D. 2024-May-11 00:00:00.0000, -1.512531558105633E+08, 3.284048505958162E+08, -2.391879918011449E+07,
2460448.500000000, A.D. 2024-May-18 00:00:00.0000, -1.618659533546267E+08, 3.244334530097145E+08, -2.402338494841430E+07,
2460455.500000000, A.D. 2024-May-25 00:00:00.0000, -1.723149486626578E+08, 3.201337861008396E+08, -2.410366082640211E+07,
2460462.500000000, A.D. 2024-Jun-01 00:00:00.0000, -1.825909957577860E+08, 3.155128442475005E+08, -2.415974494658375E+07,
2460469.500000000, A.D. 2024-Jun-08 00:00:00.0000, -1.926852485096649E+08, 3.105777928907862E+08, -2.419177502396843E+07,
2460476.500000000, A.D. 2024-Jun-15 00:00:00.0000, -2.025891566621064E+08, 3.053359569966272E+08, -2.419990766714117E+07,
2460483.500000000, A.D. 2024-Jun-22 00:00:00.0000, -2.122944619158352E+08, 2.997948116974146E+08, -2.418431756130555E+07,
2460490.500000000, A.D. 2024-Jun-29 00:00:00.0000, -2.217931962314998E+08, 2.939619732828493E+08, -2.414519647893804E+07,
2460497.500000000, A.D. 2024-Jul-06 00:00:00.0000, -2.310776797402499E+08, 2.878451880514500E+08, -2.408275256186664E+07,
2460504.500000000, A.D. 2024-Jul-13 00:00:00.0000, -2.401405163457299E+08, 2.814523218202904E+08, -2.399720982056266E+07,
2460511.500000000, A.D. 2024-Jul-20 00:00:00.0000, -2.489745890398738E+08, 2.747913512196453E+08, -2.388880757405852E+07,
2460518.500000000, A.D. 2024-Jul-27 00:00:00.0000, -2.575730556215063E+08, 2.678703557910641E+08, -2.375779984816098E+07,
2460525.500000000, A.D. 2024-Aug-03 00:00:00.0000, -2.659293445781559E+08, 2.606975104910969E+08, -2.360445478726913E+07,
2460532.500000000, A.D. 2024-Aug-10 00:00:00.0000, -2.740371509982447E+08, 2.532810785775890E+08, -2.342905409610739E+07,
2460539.500000000, A.D. 2024-Aug-17 00:00:00.0000, -2.818904324946707E+08, 2.456294048845118E+08, -2.323189251499236E+07,
2460546.500000000, A.D. 2024-Aug-24 00:00:00.0000, -2.894834051348435E+08, 2.377509094464954E+08, -2.301327733349219E+07,
2460553.500000000, A.D. 2024-Aug-31 00:00:00.0000, -2.968105392806736E+08, 2.296540813925402E+08, -2.277352795785882E+07,
2460560.500000000, A.D. 2024-Sep-07 00:00:00.0000, -3.038665549900826E+08, 2.213474732141958E+08, -2.251297555471706E+07,
2460567.500000000, A.D. 2024-Sep-14 00:00:00.0000, -3.106464169110551E+08, 2.128396963818684E+08, -2.223196269660174E+07,
2460574.500000000, A.D. 2024-Sep-21 00:00:00.0000, -3.171453307144483E+08, 2.041394187004240E+08, -2.193084278913395E+07,
2460581.500000000, A.D. 2024-Sep-28 00:00:00.0000, -3.233587415696185E+08, 1.952553601587044E+08, -2.160997949893093E+07,
2460588.500000000, A.D. 2024-Oct-05 00:00:00.0000, -3.292823310020481E+08, 1.861962872556496E+08, -2.126974651740903E+07,
2460595.500000000, A.D. 2024-Oct-12 00:00:00.0000, -3.349120125022711E+08, 1.769710087588269E+08, -2.091052738207893E+07,
2460602.500000000, A.D. 2024-Oct-19 00:00:00.0000, -3.402439276515859E+08, 1.675883726042097E+08, -2.053271521671035E+07,
2460609.500000000, A.D. 2024-Oct-26 00:00:00.0000, -3.452744428086601E+08, 1.580572631196942E+08, -2.013671245275865E+07,
2460616.500000000, A.D. 2024-Nov-02 00:00:00.0000, -3.500001461074824E+08, 1.483865984068187E+08, -1.972293056690504E+07,
2460623.500000000, A.D. 2024-Nov-09 00:00:00.0000, -3.544178446769496E+08, 1.385853278834343E+08, -1.929178984086577E+07,
2460630.500000000, A.D. 2024-Nov-16 00:00:00.0000, -3.585245620627831E+08, 1.286624299700085E+08, -1.884371914489786E+07,
2460637.500000000, A.D. 2024-Nov-23 00:00:00.0000, -3.623175358108820E+08, 1.186269098526582E+08, -1.837915575249374E+07,
2460644.500000000, A.D. 2024-Nov-30 00:00:00.0000, -3.657942150090893E+08, 1.084877972637116E+08, -1.789854520793869E+07,
2460651.500000000, A.D. 2024-Dec-07 00:00:00.0000, -3.689522573722076E+08, 9.825414468404526E+07, -1.740234124983639E+07,
2460658.500000000, A.D. 2024-Dec-14 00:00:00.0000, -3.717895265626416E+08, 8.793502717443016E+07, -1.689100562642204E+07,
2460665.500000000, A.D. 2024-Dec-21 00:00:00.0000, -3.743040920707901E+08, 7.753954257849109E+07, -1.636500769078462E+07,
2460672.500000000, A.D. 2024-Dec-28 00:00:00.0000, -3.764942296893225E+08, 6.707680911618166E+07, -1.582482419897911E+07,
2460679.500000000, A.D. 2025-Jan-04 00:00:00.0000, -3.783584199846560E+08, 5.655596273119600E+07, -1.527093935356956E+07,
2460686.500000000, A.D. 2025-Jan-11 00:00:00.0000, -3.798953465849959E+08, 4.598615583506418E+07, -1.470384478812528E+07,
2460693.500000000, A.D. 2025-Jan-18 00:00:00.0000, -3.811038952053293E+08, 3.537655651147635E+07, -1.412403948293604E+07,
2460700.500000000, A.D. 2025-Jan-25 00:00:00.0000, -3.819831531705784E+08, 2.473634769180820E+07, -1.353202967252292E+07,
2460707.500000000, A.D. 2025-Feb-01 00:00:00.0000, -3.825324092496099E+08, 1.407472625792537E+07, -1.292832876378010E+07,
2460714.500000000, A.D. 2025-Feb-08 00:00:00.0000, -3.827511537427320E+08, 3.400902077245419E+06, -1.231345726735501E+07,
2460721.500000000, A.D. 2025-Feb-15 00:00:00.0000, -3.826390787950712E+08, -7.275903065169221E+06, -1.168794274551165E+07,
$$EOE